ICEYE-X39               
1 60546U 24149CG  26068.72048823  .00003515  00000+0  29320-3 0  9999
2 60546  97.6853 147.0953 0005274  52.5538 307.6164 14.99225125 85219
STARLINK-36199          
1 67213U 25304X   26068.72089541 -.00000946  00000+0 -71540-4 0  9992
2 67213  70.0012 174.2026 0004057 277.6942  82.3756 14.98314096 13893
