[{"OBJECT_NAME":"ICEYE-X39","OBJECT_ID":"2024-149CG","EPOCH":"2026-03-09T17:17:30.183072","MEAN_MOTION":14.99225125,"ECCENTRICITY":0.0005274,"INCLINATION":97.6853,"RA_OF_ASC_NODE":147.0953,"ARG_OF_PERICENTER":52.5538,"MEAN_ANOMALY":307.6164,"EPHEMERIS_TYPE":0,"CLASSIFICATION_TYPE":"U","NORAD_CAT_ID":60546,"ELEMENT_SET_NO":999,"REV_AT_EPOCH":8521,"BSTAR":0.00029320082,"MEAN_MOTION_DOT":3.515e-5,"MEAN_MOTION_DDOT":0},{"OBJECT_NAME":"STARLINK-36199","OBJECT_ID":"2025-304X","EPOCH":"2026-03-09T17:18:05.364288","MEAN_MOTION":14.98314096,"ECCENTRICITY":0.00040566,"INCLINATION":70.0012,"RA_OF_ASC_NODE":174.2026,"ARG_OF_PERICENTER":277.6942,"MEAN_ANOMALY":82.3756,"EPHEMERIS_TYPE":0,"CLASSIFICATION_TYPE":"U","NORAD_CAT_ID":67213,"ELEMENT_SET_NO":999,"REV_AT_EPOCH":1389,"BSTAR":-7.1540041e-5,"MEAN_MOTION_DOT":-9.46e-6,"MEAN_MOTION_DDOT":0}]
